{
  "type": "FeatureCollection",
  "features": [
    {
      "type": "Feature",
      "properties": {
        "norad_id": 58647,
        "name": "TIANMU-1 13",
        "group": "weather",
        "lat": 0.3436070071751469,
        "lon": -166.58688477094523,
        "alt_km": 492.63784216197564,
        "timestamp": "2025-12-19T20:42:59.724130+00:00",
        "meta_object_name": "TIANMU-1 13",
        "meta_object_id": "2023-205C",
        "meta_epoch": "2025-12-19T07:19:46.426944",
        "meta_mean_motion": 15.24603593,
        "meta_eccentricity": 0.00062182,
        "meta_inclination": 97.3612,
        "meta_ra_of_asc_node": 12.8206,
        "meta_arg_of_pericenter": 237.7462,
        "meta_mean_anomaly": 122.3173,
        "meta_ephemeris_type": 0,
        "meta_classification_type": "U",
        "meta_norad_cat_id": 58647,
        "meta_element_set_no": 999,
        "meta_rev_at_epoch": 11007,
        "meta_bstar": 0.00018776601,
        "meta_mean_motion_dot": 4.561e-05,
        "meta_mean_motion_ddot": 0,
        "tle_line1": "1 58647U 23205C   25353.30539846  .00004561  00000+0  18777-3 0  9996",
        "tle_line2": "2 58647  97.3612  12.8206 0006218 237.7462 122.3173 15.24603593110073"
      },
      "geometry": {
        "type": "Point",
        "coordinates": [
          -166.58688477094523,
          0.3436070071751469
        ]
      }
    },
    {
      "type": "Feature",
      "properties": {
        "norad_id": 58648,
        "name": "TIANMU-1 14",
        "group": "weather",
        "lat": -82.63656864335523,
        "lon": 100.82689462657042,
        "alt_km": 495.1787086055583,
        "timestamp": "2025-12-19T20:42:59.724140+00:00",
        "meta_object_name": "TIANMU-1 14",
        "meta_object_id": "2023-205D",
        "meta_epoch": "2025-12-19T06:55:58.347264",
        "meta_mean_motion": 15.24586731,
        "meta_eccentricity": 0.00069583,
        "meta_inclination": 97.3544,
        "meta_ra_of_asc_node": 12.147,
        "meta_arg_of_pericenter": 243.8098,
        "meta_mean_anomaly": 116.2425,
        "meta_ephemeris_type": 0,
        "meta_classification_type": "U",
        "meta_norad_cat_id": 58648,
        "meta_element_set_no": 999,
        "meta_rev_at_epoch": 11007,
        "meta_bstar": 0.00019644304,
        "meta_mean_motion_dot": 4.773e-05,
        "meta_mean_motion_ddot": 0,
        "tle_line1": "1 58648U 23205D   25353.28886976  .00004773  00000+0  19644-3 0  9992",
        "tle_line2": "2 58648  97.3544  12.1470 0006958 243.8098 116.2425 15.24586731110074"
      },
      "geometry": {
        "type": "Point",
        "coordinates": [
          100.82689462657042,
          -82.63656864335523
        ]
      }
    },
    {
      "type": "Feature",
      "properties": {
        "norad_id": 58660,
        "name": "TIANMU-1 19",
        "group": "weather",
        "lat": -69.94414831108067,
        "lon": -96.08594159989735,
        "alt_km": 486.5446831670615,
        "timestamp": "2025-12-19T20:42:59.724151+00:00",
        "meta_object_name": "TIANMU-1 19",
        "meta_object_id": "2023-208A",
        "meta_epoch": "2025-12-19T07:02:46.445568",
        "meta_mean_motion": 15.27964533,
        "meta_eccentricity": 0.00043965,
        "meta_inclination": 97.4394,
        "meta_ra_of_asc_node": 104.3182,
        "meta_arg_of_pericenter": 224.0153,
        "meta_mean_anomaly": 136.0736,
        "meta_ephemeris_type": 0,
        "meta_classification_type": "U",
        "meta_norad_cat_id": 58660,
        "meta_element_set_no": 999,
        "meta_rev_at_epoch": 10982,
        "meta_bstar": 0.00025712559,
        "meta_mean_motion_dot": 6.943e-05,
        "meta_mean_motion_ddot": 0,
        "tle_line1": "1 58660U 23208A   25353.29359312  .00006943  00000+0  25713-3 0  9994",
        "tle_line2": "2 58660  97.4394 104.3182 0004396 224.0153 136.0736 15.27964533109822"
      },
      "geometry": {
        "type": "Point",
        "coordinates": [
          -96.08594159989735,
          -69.94414831108067
        ]
      }
    },
    {
      "type": "Feature",
      "properties": {
        "norad_id": 58661,
        "name": "TIANMU-1 20",
        "group": "weather",
        "lat": -4.056950261036329,
        "lon": 105.87192201244507,
        "alt_km": 484.1370598609601,
        "timestamp": "2025-12-19T20:42:59.724161+00:00",
        "meta_object_name": "TIANMU-1 20",
        "meta_object_id": "2023-208B",
        "meta_epoch": "2025-12-19T06:35:59.750304",
        "meta_mean_motion": 15.29154375,
        "meta_eccentricity": 0.00065006,
        "meta_inclination": 97.4332,
        "meta_ra_of_asc_node": 104.7537,
        "meta_arg_of_pericenter": 238.3802,
        "meta_mean_anomaly": 121.6804,
        "meta_ephemeris_type": 0,
        "meta_classification_type": "U",
        "meta_norad_cat_id": 58661,
        "meta_element_set_no": 999,
        "meta_rev_at_epoch": 10989,
        "meta_bstar": 0.00025974196,
        "meta_mean_motion_dot": 7.278e-05,
        "meta_mean_motion_ddot": 0,
        "tle_line1": "1 58661U 23208B   25353.27499711  .00007278  00000+0  25974-3 0  9992",
        "tle_line2": "2 58661  97.4332 104.7537 0006500 238.3802 121.6804 15.29154375109891"
      },
      "geometry": {
        "type": "Point",
        "coordinates": [
          105.87192201244507,
          -4.056950261036329
        ]
      }
    },
    {
      "type": "Feature",
      "properties": {
        "norad_id": 58662,
        "name": "TIANMU-1 21",
        "group": "weather",
        "lat": 64.1722073956559,
        "lon": 91.62272500226958,
        "alt_km": 468.5872727699525,
        "timestamp": "2025-12-19T20:42:59.724171+00:00",
        "meta_object_name": "TIANMU-1 21",
        "meta_object_id": "2023-208C",
        "meta_epoch": "2025-12-19T06:19:17.341824",
        "meta_mean_motion": 15.31685112,
        "meta_eccentricity": 0.00061317,
        "meta_inclination": 97.4379,
        "meta_ra_of_asc_node": 106.6798,
        "meta_arg_of_pericenter": 232.6734,
        "meta_mean_anomaly": 127.3949,
        "meta_ephemeris_type": 0,
        "meta_classification_type": "U",
        "meta_norad_cat_id": 58662,
        "meta_element_set_no": 999,
        "meta_rev_at_epoch": 10999,
        "meta_bstar": 0.00028372735,
        "meta_mean_motion_dot": 8.607e-05,
        "meta_mean_motion_ddot": 0,
        "tle_line1": "1 58662U 23208C   25353.26339516  .00008607  00000+0  28373-3 0  9991",
        "tle_line2": "2 58662  97.4379 106.6798 0006131 232.6734 127.3949 15.31685112109999"
      },
      "geometry": {
        "type": "Point",
        "coordinates": [
          91.62272500226958,
          64.1722073956559
        ]
      }
    },
    {
      "type": "Feature",
      "properties": {
        "norad_id": 58663,
        "name": "TIANMU-1 22",
        "group": "weather",
        "lat": -65.03698201162896,
        "lon": -91.35764490475145,
        "alt_km": 488.02540012625195,
        "timestamp": "2025-12-19T20:42:59.724182+00:00",
        "meta_object_name": "TIANMU-1 22",
        "meta_object_id": "2023-208D",
        "meta_epoch": "2025-12-19T07:04:00.151680",
        "meta_mean_motion": 15.27710671,
        "meta_eccentricity": 0.00027201,
        "meta_inclination": 97.4388,
        "meta_ra_of_asc_node": 104.3751,
        "meta_arg_of_pericenter": 252.314,
        "meta_mean_anomaly": 107.7803,
        "meta_ephemeris_type": 0,
        "meta_classification_type": "U",
        "meta_norad_cat_id": 58663,
        "meta_element_set_no": 999,
        "meta_rev_at_epoch": 10983,
        "meta_bstar": 0.00023569415,
        "meta_mean_motion_dot": 6.307e-05,
        "meta_mean_motion_ddot": 0,
        "tle_line1": "1 58663U 23208D   25353.29444620  .00006307  00000+0  23569-3 0  9995",
        "tle_line2": "2 58663  97.4388 104.3751 0002720 252.3140 107.7803 15.27710671109832"
      },
      "geometry": {
        "type": "Point",
        "coordinates": [
          -91.35764490475145,
          -65.03698201162896
        ]
      }
    },
    {
      "type": "Feature",
      "properties": {
        "norad_id": 58700,
        "name": "TIANMU-1 15",
        "group": "weather",
        "lat": -65.3663214452056,
        "lon": -168.08529362311845,
        "alt_km": 496.12535169038165,
        "timestamp": "2025-12-19T20:42:59.724192+00:00",
        "meta_object_name": "TIANMU-1 15",
        "meta_object_id": "2024-004A",
        "meta_epoch": "2025-12-19T06:49:47.407008",
        "meta_mean_motion": 15.24489191,
        "meta_eccentricity": 0.00059435,
        "meta_inclination": 97.4621,
        "meta_ra_of_asc_node": 174.7294,
        "meta_arg_of_pericenter": 262.7385,
        "meta_mean_anomaly": 97.3177,
        "meta_ephemeris_type": 0,
        "meta_classification_type": "U",
        "meta_norad_cat_id": 58700,
        "meta_element_set_no": 999,
        "meta_rev_at_epoch": 10834,
        "meta_bstar": 0.00021200149,
        "meta_mean_motion_dot": 5.139e-05,
        "meta_mean_motion_ddot": 0,
        "tle_line1": "1 58700U 24004A   25353.28457647  .00005139  00000+0  21200-3 0  9996",
        "tle_line2": "2 58700  97.4621 174.7294 0005943 262.7385  97.3177 15.24489191108343"
      },
      "geometry": {
        "type": "Point",
        "coordinates": [
          -168.08529362311845,
          -65.3663214452056
        ]
      }
    }
  ]
}